{
  "type": "FeatureCollection",
  "features": [
    {
      "type": "Feature",
      "properties": {
        "norad_id": 41772,
        "name": "SKYSAT-C5",
        "group": "resource",
        "lat": -62.50396498075958,
        "lon": -165.26901842078283,
        "alt_km": 467.66113019779823,
        "timestamp": "2025-12-10T16:57:11.292088+00:00",
        "meta_object_name": "SKYSAT-C5",
        "meta_object_id": "2016-058C",
        "meta_epoch": "2025-12-10T09:38:23.191584",
        "meta_mean_motion": 15.35296249,
        "meta_eccentricity": 0.0002399,
        "meta_inclination": 97.076,
        "meta_ra_of_asc_node": 28.246,
        "meta_arg_of_pericenter": 139.5793,
        "meta_mean_anomaly": 220.5629,
        "meta_ephemeris_type": 0,
        "meta_classification_type": "U",
        "meta_norad_cat_id": 41772,
        "meta_element_set_no": 999,
        "meta_rev_at_epoch": 51480,
        "meta_bstar": 0.00044653,
        "meta_mean_motion_dot": 0.00015242,
        "meta_mean_motion_ddot": 0,
        "tle_line1": "1 41772U 16058C   25344.40165731  .00015242  00000+0  44653-3 0  9994",
        "tle_line2": "2 41772  97.0760  28.2460 0002399 139.5793 220.5629 15.35296249514804"
      },
      "geometry": {
        "type": "Point",
        "coordinates": [
          -165.26901842078283,
          -62.50396498075958
        ]
      }
    },
    {
      "type": "Feature",
      "properties": {
        "norad_id": 41773,
        "name": "SKYSAT-C2",
        "group": "resource",
        "lat": -57.8735068664322,
        "lon": 177.97498080005752,
        "alt_km": 464.4569690154194,
        "timestamp": "2025-12-10T16:57:11.292098+00:00",
        "meta_object_name": "SKYSAT-C2",
        "meta_object_id": "2016-058D",
        "meta_epoch": "2025-12-10T08:06:25.640064",
        "meta_mean_motion": 15.37180734,
        "meta_eccentricity": 0.0004477,
        "meta_inclination": 97.0364,
        "meta_ra_of_asc_node": 8.9661,
        "meta_arg_of_pericenter": 40.507,
        "meta_mean_anomaly": 319.6508,
        "meta_ephemeris_type": 0,
        "meta_classification_type": "U",
        "meta_norad_cat_id": 41773,
        "meta_element_set_no": 999,
        "meta_rev_at_epoch": 51599,
        "meta_bstar": 0.0004509,
        "meta_mean_motion_dot": 0.00016358,
        "meta_mean_motion_ddot": 0,
        "tle_line1": "1 41773U 16058D   25344.33779676  .00016358  00000+0  45090-3 0  9991",
        "tle_line2": "2 41773  97.0364   8.9661 0004477  40.5070 319.6508 15.37180734515991"
      },
      "geometry": {
        "type": "Point",
        "coordinates": [
          177.97498080005752,
          -57.8735068664322
        ]
      }
    },
    {
      "type": "Feature",
      "properties": {
        "norad_id": 41774,
        "name": "SKYSAT-C3",
        "group": "resource",
        "lat": 14.963953980759168,
        "lon": 16.68410702327511,
        "alt_km": 434.45775181298995,
        "timestamp": "2025-12-10T16:57:11.292108+00:00",
        "meta_object_name": "SKYSAT-C3",
        "meta_object_id": "2016-058E",
        "meta_epoch": "2025-12-10T01:20:10.885056",
        "meta_mean_motion": 15.44244525,
        "meta_eccentricity": 0.00015989,
        "meta_inclination": 96.93,
        "meta_ra_of_asc_node": 17.9267,
        "meta_arg_of_pericenter": 105.6106,
        "meta_mean_anomaly": 254.5321,
        "meta_ephemeris_type": 0,
        "meta_classification_type": "U",
        "meta_norad_cat_id": 41774,
        "meta_element_set_no": 999,
        "meta_rev_at_epoch": 51684,
        "meta_bstar": 0.00053806643,
        "meta_mean_motion_dot": 0.0002469,
        "meta_mean_motion_ddot": 0,
        "tle_line1": "1 41774U 16058E   25344.05568154  .00024690  00000+0  53807-3 0  9991",
        "tle_line2": "2 41774  96.9300  17.9267 0001598 105.6106 254.5321 15.44244525516848"
      },
      "geometry": {
        "type": "Point",
        "coordinates": [
          16.68410702327511,
          14.963953980759168
        ]
      }
    },
    {
      "type": "Feature",
      "properties": {
        "norad_id": 41785,
        "name": "ALSAT 1B",
        "group": "resource",
        "lat": 41.09960554240348,
        "lon": -10.267462237290596,
        "alt_km": 648.2903824990626,
        "timestamp": "2025-12-10T16:57:11.292118+00:00",
        "meta_object_name": "ALSAT 1B",
        "meta_object_id": "2016-059C",
        "meta_epoch": "2025-12-10T11:52:15.331296",
        "meta_mean_motion": 14.72072332,
        "meta_eccentricity": 0.0010641,
        "meta_inclination": 97.7813,
        "meta_ra_of_asc_node": 356.3808,
        "meta_arg_of_pericenter": 109.4742,
        "meta_mean_anomaly": 250.7617,
        "meta_ephemeris_type": 0,
        "meta_classification_type": "U",
        "meta_norad_cat_id": 41785,
        "meta_element_set_no": 999,
        "meta_rev_at_epoch": 49281,
        "meta_bstar": 0.00014323,
        "meta_mean_motion_dot": 8.54e-06,
        "meta_mean_motion_ddot": 0,
        "tle_line1": "1 41785U 16059C   25344.49462189  .00000854  00000+0  14323-3 0  9999",
        "tle_line2": "2 41785  97.7813 356.3808 0010641 109.4742 250.7617 14.72072332492817"
      },
      "geometry": {
        "type": "Point",
        "coordinates": [
          -10.267462237290596,
          41.09960554240348
        ]
      }
    },
    {
      "type": "Feature",
      "properties": {
        "norad_id": 41787,
        "name": "PATHFINDER 1",
        "group": "resource",
        "lat": 24.232693528808436,
        "lon": 171.11797637623664,
        "alt_km": 661.110511538006,
        "timestamp": "2025-12-10T16:57:11.292128+00:00",
        "meta_object_name": "PATHFINDER 1",
        "meta_object_id": "2016-059E",
        "meta_epoch": "2025-12-10T11:20:24.890784",
        "meta_mean_motion": 14.67314596,
        "meta_eccentricity": 0.0030057,
        "meta_inclination": 97.8139,
        "meta_ra_of_asc_node": 347.3513,
        "meta_arg_of_pericenter": 88.0496,
        "meta_mean_anomaly": 272.4151,
        "meta_ephemeris_type": 0,
        "meta_classification_type": "U",
        "meta_norad_cat_id": 41787,
        "meta_element_set_no": 999,
        "meta_rev_at_epoch": 49203,
        "meta_bstar": 0.00023092,
        "meta_mean_motion_dot": 1.265e-05,
        "meta_mean_motion_ddot": 0,
        "tle_line1": "1 41787U 16059E   25344.47251031  .00001265  00000+0  23092-3 0  9991",
        "tle_line2": "2 41787  97.8139 347.3513 0030057  88.0496 272.4151 14.67314596492038"
      },
      "geometry": {
        "type": "Point",
        "coordinates": [
          171.11797637623664,
          24.232693528808436
        ]
      }
    },
    {
      "type": "Feature",
      "properties": {
        "norad_id": 41790,
        "name": "SCATSAT 1",
        "group": "resource",
        "lat": 61.00087944302222,
        "lon": 26.374326242797594,
        "alt_km": 614.5910226043679,
        "timestamp": "2025-12-10T16:57:11.292137+00:00",
        "meta_object_name": "SCATSAT 1",
        "meta_object_id": "2016-059H",
        "meta_epoch": "2025-12-10T03:40:56.846208",
        "meta_mean_motion": 14.78922317,
        "meta_eccentricity": 0.00561475,
        "meta_inclination": 98.1464,
        "meta_ra_of_asc_node": 40.7913,
        "meta_arg_of_pericenter": 136.1603,
        "meta_mean_anomaly": 224.4085,
        "meta_ephemeris_type": 0,
        "meta_classification_type": "U",
        "meta_norad_cat_id": 41790,
        "meta_element_set_no": 999,
        "meta_rev_at_epoch": 7364,
        "meta_bstar": 0.00031975556,
        "meta_mean_motion_dot": 2.364e-05,
        "meta_mean_motion_ddot": 0,
        "tle_line1": "1 41790U 16059H   25344.15343572  .00002364  00000+0  31976-3 0  9993",
        "tle_line2": "2 41790  98.1464  40.7913 0056147 136.1603 224.4085 14.78922317 73641"
      },
      "geometry": {
        "type": "Point",
        "coordinates": [
          26.374326242797594,
          61.00087944302222
        ]
      }
    },
    {
      "type": "Feature",
      "properties": {
        "norad_id": 41875,
        "name": "GOKTURK 1A",
        "group": "resource",
        "lat": -80.66242615030201,
        "lon": -3.444437714512236,
        "alt_km": 692.4512968813788,
        "timestamp": "2025-12-10T16:57:11.292147+00:00",
        "meta_object_name": "GOKTURK 1A",
        "meta_object_id": "2016-073A",
        "meta_epoch": "2025-12-10T12:27:35.991648",
        "meta_mean_motion": 14.6277476,
        "meta_eccentricity": 0.0001252,
        "meta_inclination": 98.1425,
        "meta_ra_of_asc_node": 236.9137,
        "meta_arg_of_pericenter": 79.1959,
        "meta_mean_anomaly": 280.9383,
        "meta_ephemeris_type": 0,
        "meta_classification_type": "U",
        "meta_norad_cat_id": 41875,
        "meta_element_set_no": 999,
        "meta_rev_at_epoch": 48124,
        "meta_bstar": 0.00013257,
        "meta_mean_motion_dot": 6.29e-06,
        "meta_mean_motion_ddot": 0,
        "tle_line1": "1 41875U 16073A   25344.51916657  .00000629  00000+0  13257-3 0  9997",
        "tle_line2": "2 41875  98.1425 236.9137 0001252  79.1959 280.9383 14.62774760481243"
      },
      "geometry": {
        "type": "Point",
        "coordinates": [
          -3.444437714512236,
          -80.66242615030201
        ]
      }
    }
  ]
}